[{"OBJECT_NAME":"STARLINK-36660","OBJECT_ID":"2026-033AD","EPOCH":"2026-03-10T20:00:00.999360","MEAN_MOTION":15.78159663,"ECCENTRICITY":0.0001564,"INCLINATION":42.9989,"RA_OF_ASC_NODE":264.2655,"ARG_OF_PERICENTER":282.2098,"MEAN_ANOMALY":193.3095,"EPHEMERIS_TYPE":0,"CLASSIFICATION_TYPE":"U","NORAD_CAT_ID":67848,"ELEMENT_SET_NO":999,"REV_AT_EPOCH":484,"BSTAR":-0.012482,"MEAN_MOTION_DOT":-0.01916078,"MEAN_MOTION_DDOT":0},{"OBJECT_NAME":"STARLINK-36602","OBJECT_ID":"2026-033AE","EPOCH":"2026-03-09T23:46:19.032384","MEAN_MOTION":15.82121863,"ECCENTRICITY":0.00021397,"INCLINATION":42.9975,"RA_OF_ASC_NODE":269.4026,"ARG_OF_PERICENTER":256.5139,"MEAN_ANOMALY":103.5494,"EPHEMERIS_TYPE":0,"CLASSIFICATION_TYPE":"U","NORAD_CAT_ID":67849,"ELEMENT_SET_NO":999,"REV_AT_EPOCH":467,"BSTAR":0.0012641995,"MEAN_MOTION_DOT":0.00275679,"MEAN_MOTION_DDOT":0},{"OBJECT_NAME":"STARLINK-36840","OBJECT_ID":"2026-034A","EPOCH":"2026-03-10T19:21:08.980416","MEAN_MOTION":15.80999388,"ECCENTRICITY":7.18e-5,"INCLINATION":53.1579,"RA_OF_ASC_NODE":205.7612,"ARG_OF_PERICENTER":76.4465,"MEAN_ANOMALY":283.6638,"EPHEMERIS_TYPE":0,"CLASSIFICATION_TYPE":"U","NORAD_CAT_ID":67850,"ELEMENT_SET_NO":999,"REV_AT_EPOCH":411,"BSTAR":0.0015722,"MEAN_MOTION_DOT":0.00323392,"MEAN_MOTION_DDOT":0},{"OBJECT_NAME":"STARLINK-36348","OBJECT_ID":"2026-034B","EPOCH":"2026-03-10T17:49:02.221248","MEAN_MOTION":15.80969642,"ECCENTRICITY":0.0001059,"INCLINATION":53.1579,"RA_OF_ASC_NODE":206.0734,"ARG_OF_PERICENTER":60.3714,"MEAN_ANOMALY":299.7415,"EPHEMERIS_TYPE":0,"CLASSIFICATION_TYPE":"U","NORAD_CAT_ID":67851,"ELEMENT_SET_NO":999,"REV_AT_EPOCH":410,"BSTAR":0.0013208,"MEAN_MOTION_DOT":0.00269474,"MEAN_MOTION_DDOT":0},{"OBJECT_NAME":"STARLINK-36276","OBJECT_ID":"2026-034C","EPOCH":"2026-03-10T19:18:59.618016","MEAN_MOTION":15.80923963,"ECCENTRICITY":9.22e-5,"INCLINATION":53.1582,"RA_OF_ASC_NODE":205.7513,"ARG_OF_PERICENTER":68.9341,"MEAN_ANOMALY":291.178,"EPHEMERIS_TYPE":0,"CLASSIFICATION_TYPE":"U","NORAD_CAT_ID":67852,"ELEMENT_SET_NO":999,"REV_AT_EPOCH":411,"BSTAR":0.0011488,"MEAN_MOTION_DOT":0.0023281,"MEAN_MOTION_DDOT":0},{"OBJECT_NAME":"STARLINK-36785","OBJECT_ID":"2026-034D","EPOCH":"2026-03-10T20:48:56.775456","MEAN_MOTION":15.80982251,"ECCENTRICITY":0.0001176,"INCLINATION":53.1583,"RA_OF_ASC_NODE":205.4293,"ARG_OF_PERICENTER":54.6782,"MEAN_ANOMALY":305.435,"EPHEMERIS_TYPE":0,"CLASSIFICATION_TYPE":"U","NORAD_CAT_ID":67853,"ELEMENT_SET_NO":999,"REV_AT_EPOCH":412,"BSTAR":0.0012987,"MEAN_MOTION_DOT":0.00264968,"MEAN_MOTION_DDOT":0},{"OBJECT_NAME":"STARLINK-36608","OBJECT_ID":"2026-034E","EPOCH":"2026-03-10T20:47:51.902016","MEAN_MOTION":15.80980779,"ECCENTRICITY":7.82e-5,"INCLINATION":53.1583,"RA_OF_ASC_NODE":205.424,"ARG_OF_PERICENTER":58.5585,"MEAN_ANOMALY":301.5514,"EPHEMERIS_TYPE":0,"CLASSIFICATION_TYPE":"U","NORAD_CAT_ID":67854,"ELEMENT_SET_NO":999,"REV_AT_EPOCH":411,"BSTAR":0.0011668,"MEAN_MOTION_DOT":0.0023721,"MEAN_MOTION_DDOT":0},{"OBJECT_NAME":"STARLINK-36838","OBJECT_ID":"2026-034F","EPOCH":"2026-03-10T20:46:47.140896","MEAN_MOTION":15.80981048,"ECCENTRICITY":0.0001343,"INCLINATION":53.1582,"RA_OF_ASC_NODE":205.4176,"ARG_OF_PERICENTER":54.1707,"MEAN_ANOMALY":305.9441,"EPHEMERIS_TYPE":0,"CLASSIFICATION_TYPE":"U","NORAD_CAT_ID":67855,"ELEMENT_SET_NO":999,"REV_AT_EPOCH":412,"BSTAR":0.0014263,"MEAN_MOTION_DOT":0.00291984,"MEAN_MOTION_DDOT":0},{"OBJECT_NAME":"STARLINK-36843","OBJECT_ID":"2026-034G","EPOCH":"2026-03-10T20:44:37.361184","MEAN_MOTION":15.81019625,"ECCENTRICITY":8.58e-5,"INCLINATION":53.158,"RA_OF_ASC_NODE":205.4083,"ARG_OF_PERICENTER":65.3147,"MEAN_ANOMALY":294.7965,"EPHEMERIS_TYPE":0,"CLASSIFICATION_TYPE":"U","NORAD_CAT_ID":67856,"ELEMENT_SET_NO":999,"REV_AT_EPOCH":412,"BSTAR":0.0017788,"MEAN_MOTION_DOT":0.00368255,"MEAN_MOTION_DDOT":0},{"OBJECT_NAME":"STARLINK-36828","OBJECT_ID":"2026-034H","EPOCH":"2026-03-10T20:45:42.285600","MEAN_MOTION":15.80985135,"ECCENTRICITY":7.48e-5,"INCLINATION":53.1579,"RA_OF_ASC_NODE":205.4139,"ARG_OF_PERICENTER":62.4326,"MEAN_ANOMALY":297.6773,"EPHEMERIS_TYPE":0,"CLASSIFICATION_TYPE":"U","NORAD_CAT_ID":67857,"ELEMENT_SET_NO":999,"REV_AT_EPOCH":412,"BSTAR":0.0013042,"MEAN_MOTION_DOT":0.00266178,"MEAN_MOTION_DDOT":0},{"OBJECT_NAME":"STARLINK-36837","OBJECT_ID":"2026-034J","EPOCH":"2026-03-10T17:41:28.503744","MEAN_MOTION":15.80978469,"ECCENTRICITY":0.0001018,"INCLINATION":53.1584,"RA_OF_ASC_NODE":206.0369,"ARG_OF_PERICENTER":77.1895,"MEAN_ANOMALY":282.9241,"EPHEMERIS_TYPE":0,"CLASSIFICATION_TYPE":"U","NORAD_CAT_ID":67858,"ELEMENT_SET_NO":999,"REV_AT_EPOCH":410,"BSTAR":0.0014208,"MEAN_MOTION_DOT":0.00290792,"MEAN_MOTION_DDOT":0},{"OBJECT_NAME":"STARLINK-36393","OBJECT_ID":"2026-034K","EPOCH":"2026-03-10T17:40:23.617344","MEAN_MOTION":15.8094181,"ECCENTRICITY":6.73e-5,"INCLINATION":53.1584,"RA_OF_ASC_NODE":206.0327,"ARG_OF_PERICENTER":89.9444,"MEAN_ANOMALY":270.1656,"EPHEMERIS_TYPE":0,"CLASSIFICATION_TYPE":"U","NORAD_CAT_ID":67859,"ELEMENT_SET_NO":999,"REV_AT_EPOCH":410,"BSTAR":0.00088349,"MEAN_MOTION_DOT":0.00177874,"MEAN_MOTION_DDOT":0},{"OBJECT_NAME":"STARLINK-35873","OBJECT_ID":"2026-034L","EPOCH":"2026-03-10T19:10:21.018432","MEAN_MOTION":15.80947724,"ECCENTRICITY":0.0001046,"INCLINATION":53.1585,"RA_OF_ASC_NODE":205.7103,"ARG_OF_PERICENTER":64.1515,"MEAN_ANOMALY":295.9615,"EPHEMERIS_TYPE":0,"CLASSIFICATION_TYPE":"U","NORAD_CAT_ID":67860,"ELEMENT_SET_NO":999,"REV_AT_EPOCH":414,"BSTAR":0.00099951,"MEAN_MOTION_DOT":0.00201948,"MEAN_MOTION_DDOT":0},{"OBJECT_NAME":"STARLINK-36325","OBJECT_ID":"2026-034M","EPOCH":"2026-03-10T19:09:16.278048","MEAN_MOTION":15.80945048,"ECCENTRICITY":0.0001173,"INCLINATION":53.1584,"RA_OF_ASC_NODE":205.7056,"ARG_OF_PERICENTER":57.8086,"MEAN_ANOMALY":302.3051,"EPHEMERIS_TYPE":0,"CLASSIFICATION_TYPE":"U","NORAD_CAT_ID":67861,"ELEMENT_SET_NO":999,"REV_AT_EPOCH":411,"BSTAR":0.0011037,"MEAN_MOTION_DOT":0.00223607,"MEAN_MOTION_DDOT":0},{"OBJECT_NAME":"STARLINK-36332","OBJECT_ID":"2026-034N","EPOCH":"2026-03-10T19:08:11.257728","MEAN_MOTION":15.80959126,"ECCENTRICITY":9.79e-5,"INCLINATION":53.1583,"RA_OF_ASC_NODE":205.7009,"ARG_OF_PERICENTER":122.4744,"MEAN_ANOMALY":237.6374,"EPHEMERIS_TYPE":0,"CLASSIFICATION_TYPE":"U","NORAD_CAT_ID":67862,"ELEMENT_SET_NO":999,"REV_AT_EPOCH":411,"BSTAR":0.001088,"MEAN_MOTION_DOT":0.00220489,"MEAN_MOTION_DDOT":0},{"OBJECT_NAME":"STARLINK-36835","OBJECT_ID":"2026-034P","EPOCH":"2026-03-10T19:07:06.628800","MEAN_MOTION":15.80964852,"ECCENTRICITY":9.3e-5,"INCLINATION":53.1584,"RA_OF_ASC_NODE":205.6936,"ARG_OF_PERICENTER":71.5929,"MEAN_ANOMALY":288.5195,"EPHEMERIS_TYPE":0,"CLASSIFICATION_TYPE":"U","NORAD_CAT_ID":67863,"ELEMENT_SET_NO":999,"REV_AT_EPOCH":411,"BSTAR":0.0012746,"MEAN_MOTION_DOT":0.0025968,"MEAN_MOTION_DDOT":0},{"OBJECT_NAME":"STARLINK-36831","OBJECT_ID":"2026-034Q","EPOCH":"2026-03-10T19:06:01.640448","MEAN_MOTION":15.80982091,"ECCENTRICITY":0.0001097,"INCLINATION":53.1584,"RA_OF_ASC_NODE":205.6889,"ARG_OF_PERICENTER":58.9403,"MEAN_ANOMALY":301.1727,"EPHEMERIS_TYPE":0,"CLASSIFICATION_TYPE":"U","NORAD_CAT_ID":67864,"ELEMENT_SET_NO":999,"REV_AT_EPOCH":411,"BSTAR":0.0014191,"MEAN_MOTION_DOT":0.00290465,"MEAN_MOTION_DDOT":0}]
